LEMUR-2-LIA-MARTIN      
1 63248U 25052AQ  26068.70341042  .00006911  00000+0  60828-3 0  9993
2 63248  97.6996 322.6614 0003817 139.7155 220.4350 14.96805944 53795
STARLINK-34668          
1 64814U 25150AA  26068.52033217  .00004768  00000+0  40691-3 0  9998
2 64814  70.0026 134.7911 0003050 263.5528  96.5283 14.98347824 36490
